{"generatedAt":"2026-05-05T08:19:47.084492Z","satellites":[{"name":"STARLINK-37516","tle1":"1 68915U 26097W   26124.75002315 -.02052656  12615-2 -39513-2 0  9999","tle2":"2 68915  97.2864 319.6828 0001556  85.7511 164.1143 16.00627950  1948"}]}