{
  "norad_id": 68915,
  "name": "STARLINK-37516",
  "history": [
    {
      "epoch": "2026-05-04T18:00:02.000160Z",
      "apogee_km": 273.7135238452811,
      "perigee_km": 271.64379001284397,
      "latitude_deg": -68.81151867396711,
      "longitude_deg": -12.106597732935864,
      "height_km": 299.55231254462683,
      "semi_major_axis_km": 6650.815656929062,
      "eccentricity": 0.0001556,
      "inclination_deg": 97.2864,
      "raan_deg": 319.6828,
      "arg_perigee_deg": 85.7511,
      "mean_anomaly_deg": 164.1143,
      "mean_motion_rev_day": 16.0062795
    }
  ]
}